{
  "type": "Feature",
  "properties": {
    "name": "Batas Desa Jajarwayang",
    "kecamatan": "Bojong",
    "kabupaten": "Pekalongan",
    "provinsi": "Jawa Tengah"
  },
  "geometry": {
    "type": "Polygon",
    "coordinates": [
      [
        [109.618547, -6.946471],
        [109.618478, -6.946752],
        [109.618468, -6.946849],
        [109.618477, -6.947149],
        [109.618534, -6.947634],
        [109.618591, -6.947915],
        [109.618707, -6.948216],
        [109.618881, -6.948458],
        [109.619142, -6.948682],
        [109.619724, -6.949023],
        [109.620237, -6.949383],
        [109.620576, -6.949655],
        [109.620731, -6.949791],
        [109.620885, -6.949985],
        [109.62092188, -6.95005908],
        [109.62092942, -6.95007423],
        [109.621001, -6.950218],
        [109.621126, -6.950577],
        [109.62127, -6.951139],
        [109.621327, -6.95145],
        [109.621414, -6.95174],
        [109.621559, -6.952032],
        [109.621781, -6.952381],
        [109.62208, -6.952828],
        [109.622351, -6.953255],
        [109.622563, -6.953614],
        [109.622669, -6.953856],
        [109.622785, -6.954108],
        [109.622891, -6.954419],
        [109.622939, -6.954642],
        [109.622957, -6.954865],
        [109.622976, -6.95531],
        [109.623023, -6.955727],
        [109.623071, -6.955999],
        [109.623148, -6.956193],
        [109.623322, -6.956387],
        [109.62155904, -6.95631367],
        [109.62075954, -6.95624228],
        [109.62073813, -6.95627797],
        [109.62050256, -6.95627797],
        [109.62048115, -6.95634222],
        [109.6196174, -6.95619945],
        [109.6195246, -6.95668486],
        [109.61908349, -6.95670402],
        [109.619005, -6.956667],
        [109.618769, -6.956631],
        [109.618156, -6.956641],
        [109.617392, -6.95662],
        [109.61724259, -6.95657256],
        [109.6172212, -6.95714473],
        [109.61665012, -6.95701981],
        [109.61664711, -6.95714041],
        [109.61607772, -6.95705218],
        [109.61611475, -6.95679971],
        [109.61593034, -6.95676402],
        [109.61594686, -6.95658553],
        [109.615911, -6.95656],
        [109.615503, -6.956305],
        [109.61562561, -6.9559295],
        [109.61591844, -6.95470578],
        [109.61539779, -6.95449108],
        [109.615407, -6.954444],
        [109.61557, -6.953626],
        [109.615751, -6.952718],
        [109.61591, -6.952109],
        [109.615884, -6.952103],
        [109.615421, -6.952028],
        [109.614471, -6.951749],
        [109.61407662, -6.9516241],
        [109.6144672, -6.95007423],
        [109.61447102, -6.95005908],
        [109.61455809, -6.94971354],
        [109.61436367, -6.94966517],
        [109.61436274, -6.9496655],
        [109.61347296, -6.94944442],
        [109.61307617, -6.94822651],
        [109.60989966, -6.94734491],
        [109.60989015, -6.94733863],
        [109.60993291, -6.94715337],
        [109.61022558, -6.9464431],
        [109.60981512, -6.94640741],
        [109.60983107, -6.94568713],
        [109.60946, -6.945594],
        [109.609885, -6.944826],
        [109.610352, -6.94392],
        [109.610764, -6.943121],
        [109.61088367, -6.94290585],
        [109.61144845, -6.9430115],
        [109.61236712, -6.94371557],
        [109.61243295, -6.94372999],
        [109.61237548, -6.94379976],
        [109.61237548, -6.94389494],
        [109.61238352, -6.9440126],
        [109.61213644, -6.94487611],
        [109.61275467, -6.94511428],
        [109.6127432, -6.94520924],
        [109.6131, -6.945328],
        [109.616564, -6.946623],
        [109.616935, -6.946314],
        [109.617314, -6.945699],
        [109.617174, -6.94531],
        [109.617104, -6.944972],
        [109.617016, -6.944509],
        [109.61697188, -6.94403996],
        [109.6170857, -6.94331069],
        [109.61707638, -6.94308102],
        [109.61693246, -6.94307556],
        [109.616951, -6.942498],
        [109.617006, -6.941929],
        [109.617032, -6.941643],
        [109.617132, -6.941377],
        [109.61814419, -6.94133821],
        [109.61846823, -6.94107429],
        [109.618921, -6.941405],
        [109.618813, -6.941725],
        [109.618754, -6.941947],
        [109.618744, -6.942131],
        [109.618773, -6.942374],
        [109.618917, -6.942742],
        [109.61912, -6.943121],
        [109.619178, -6.943237],
        [109.619206, -6.943344],
        [109.619235, -6.943499],
        [109.619215, -6.94379],
        [109.619175, -6.944274],
        [109.619096, -6.944584],
        [109.618959, -6.945087],
        [109.618792, -6.945571],
        [109.618675, -6.945987],
        [109.618547, -6.946471]
      ]
    ]
  }
}
